start=new Date('2021-11-15T00:00:00.000Z').valueOf();
sats=[{"TLE_LINE2":"2 48688  53.0533 300.5228 0002334  50.4269 142.5033 15.06379517  3615","APOAPSIS":"548.893","SITE":"AFETR","PERIOD":"95.593","LAUNCH_DATE":"2021-05-26","ARG_OF_PERICENTER":"50.4269","REV_AT_EPOCH":"361","CENTER_NAME":"EARTH","MEAN_MOTION_DOT":"0.00026390","RA_OF_ASC_NODE":"300.5228","GP_ID":"189775238","SEMIMAJOR_AXIS":"6925.411","REF_FRAME":"TEME","MEAN_MOTION_DDOT":"0.0000000000000","RCS_SIZE":"LARGE","MEAN_MOTION":"15.06379517","OBJECT_ID":"2021-044BC","EPHEMERIS_TYPE":"0","TLE_LINE1":"1 48688U 21044BC  21318.91667824  .00026390  00000-0  17849-2 0  9994","MEAN_ANOMALY":"142.5033","INCLINATION":"53.0533","OBJECT_NAME":"STARLINK-2742","NORAD_CAT_ID":"48688","BSTAR":"0.00178490000000","CLASSIFICATION_TYPE":"U","TIME_SYSTEM":"UTC","ECCENTRICITY":"0.00023340","OBJECT_TYPE":"PAYLOAD","PERIAPSIS":"545.660","EPOCH":"2021-11-14T22:00:00.999936","ELEMENT_SET_NO":"999","FILE":"3215179","DECAY_DATE":null,"MEAN_ELEMENT_THEORY":"SGP4","COUNTRY_CODE":"US"},{"EPOCH":"2021-11-14T22:00:00.999936","PERIAPSIS":"548.493","ELEMENT_SET_NO":"999","COUNTRY_CODE":"US","MEAN_ELEMENT_THEORY":"SGP4","DECAY_DATE":null,"FILE":"3215179","TLE_LINE1":"1 48689U 21044BD  21318.91667824  .00030221  00000-0  20847-2 0  9995","OBJECT_NAME":"STARLINK-2617","INCLINATION":"53.0526","MEAN_ANOMALY":"193.3174","BSTAR":"0.00208470000000","CLASSIFICATION_TYPE":"U","NORAD_CAT_ID":"48689","OBJECT_TYPE":"PAYLOAD","ECCENTRICITY":"0.00018030","TIME_SYSTEM":"UTC","GP_ID":"189775938","RA_OF_ASC_NODE":"304.6327","MEAN_MOTION_DOT":"0.00030221","CENTER_NAME":"EARTH","SEMIMAJOR_AXIS":"6927.877","MEAN_MOTION_DDOT":"0.0000000000000","REF_FRAME":"TEME","EPHEMERIS_TYPE":"0","OBJECT_ID":"2021-044BD","MEAN_MOTION":"15.05575469","RCS_SIZE":"LARGE","APOAPSIS":"550.991","TLE_LINE2":"2 48689  53.0526 304.6327 0001803  58.6814 193.3174 15.05575469  3588","SITE":"AFETR","LAUNCH_DATE":"2021-05-26","PERIOD":"95.644","REV_AT_EPOCH":"358","ARG_OF_PERICENTER":"58.6814"},{"ARG_OF_PERICENTER":"55.4883","REV_AT_EPOCH":"359","PERIOD":"95.593","LAUNCH_DATE":"2021-05-26","SITE":"AFETR","TLE_LINE2":"2 48690  53.0528 315.5268 0001883  55.4883  75.0511 15.06387608  3595","APOAPSIS":"548.556","OBJECT_ID":"2021-044BE","MEAN_MOTION":"15.06387608","RCS_SIZE":"LARGE","EPHEMERIS_TYPE":"0","MEAN_MOTION_DDOT":"0.0000000000000","REF_FRAME":"TEME","SEMIMAJOR_AXIS":"6925.387","CENTER_NAME":"EARTH","GP_ID":"189775121","MEAN_MOTION_DOT":"0.00037148","RA_OF_ASC_NODE":"315.5268","TIME_SYSTEM":"UTC","OBJECT_TYPE":"PAYLOAD","ECCENTRICITY":"0.00018830","NORAD_CAT_ID":"48690","CLASSIFICATION_TYPE":"U","BSTAR":"0.00250050000000","MEAN_ANOMALY":"75.0511","INCLINATION":"53.0528","OBJECT_NAME":"STARLINK-2740","TLE_LINE1":"1 48690U 21044BE  21318.91667824  .00037148  00000-0  25005-2 0  9993","DECAY_DATE":null,"FILE":"3215179","MEAN_ELEMENT_THEORY":"SGP4","COUNTRY_CODE":"US","ELEMENT_SET_NO":"999","PERIAPSIS":"545.947","EPOCH":"2021-11-14T22:00:00.999936"},{"EPHEMERIS_TYPE":"0","MEAN_MOTION":"15.07192238","OBJECT_ID":"2021-044BF","RCS_SIZE":"LARGE","MEAN_MOTION_DDOT":"0.0000000000000","REF_FRAME":"TEME","SEMIMAJOR_AXIS":"6922.922","GP_ID":"189775705","MEAN_MOTION_DOT":"0.00035966","RA_OF_ASC_NODE":"310.4833","CENTER_NAME":"EARTH","REV_AT_EPOCH":"358","ARG_OF_PERICENTER":"65.1187","LAUNCH_DATE":"2021-05-26","PERIOD":"95.542","SITE":"AFETR","TLE_LINE2":"2 48691  53.0528 310.4833 0001487  65.1187 197.6905 15.07192238  3584","APOAPSIS":"545.816","COUNTRY_CODE":"US","MEAN_ELEMENT_THEORY":"SGP4","DECAY_DATE":null,"FILE":"3215179","ELEMENT_SET_NO":"999","EPOCH":"2021-11-14T22:00:00.999936","PERIAPSIS":"543.757","ECCENTRICITY":"0.00014870","OBJECT_TYPE":"PAYLOAD","TIME_SYSTEM":"UTC","BSTAR":"0.00236990000000","CLASSIFICATION_TYPE":"U","NORAD_CAT_ID":"48691","OBJECT_NAME":"STARLINK-2750","INCLINATION":"53.0528","MEAN_ANOMALY":"197.6905","TLE_LINE1":"1 48691U 21044BF  21318.91667824  .00035966  00000-0  23699-2 0  9997"},{"PERIAPSIS":"545.908","EPOCH":"2021-11-14T22:00:00.999936","ELEMENT_SET_NO":"999","DECAY_DATE":null,"FILE":"3215179","COUNTRY_CODE":"US","MEAN_ELEMENT_THEORY":"SGP4","TLE_LINE1":"1 48692U 21044BG  21318.91667824  .00039015  00000-0  26261-2 0  9995","INCLINATION":"53.0523","MEAN_ANOMALY":"10.5432","OBJECT_NAME":"STARLINK-2752","NORAD_CAT_ID":"48692","CLASSIFICATION_TYPE":"U","BSTAR":"0.00262610000000","TIME_SYSTEM":"UTC","ECCENTRICITY":"0.00020410","OBJECT_TYPE":"PAYLOAD","CENTER_NAME":"EARTH","GP_ID":"189775589","RA_OF_ASC_NODE":"310.5264","MEAN_MOTION_DOT":"0.00039015","SEMIMAJOR_AXIS":"6925.457","MEAN_MOTION_DDOT":"0.0000000000000","REF_FRAME":"TEME","MEAN_MOTION":"15.06364735","OBJECT_ID":"2021-044BG","RCS_SIZE":"LARGE","EPHEMERIS_TYPE":"0","APOAPSIS":"548.735","TLE_LINE2":"2 48692  53.0523 310.5264 0002041  52.6500  10.5432 15.06364735  3597","SITE":"AFETR","PERIOD":"95.594","LAUNCH_DATE":"2021-05-26","ARG_OF_PERICENTER":"52.6500","REV_AT_EPOCH":"359"},{"PERIAPSIS":"546.161","EPOCH":"2021-11-14T22:00:00.999936","FILE":"3215179","DECAY_DATE":null,"MEAN_ELEMENT_THEORY":"SGP4","COUNTRY_CODE":"US","ELEMENT_SET_NO":"999","MEAN_ANOMALY":"253.3089","INCLINATION":"53.0526","OBJECT_NAME":"STARLINK-2618","TLE_LINE1":"1 48693U 21044BH  21318.91667824  .00042748  00000-0  28741-2 0  9998","TIME_SYSTEM":"UTC","OBJECT_TYPE":"PAYLOAD","ECCENTRICITY":"0.00016760","NORAD_CAT_ID":"48693","BSTAR":"0.00287410000000","CLASSIFICATION_TYPE":"U","SEMIMAJOR_AXIS":"6925.457","CENTER_NAME":"EARTH","RA_OF_ASC_NODE":"315.5211","MEAN_MOTION_DOT":"0.00042748","GP_ID":"189775822","RCS_SIZE":"LARGE","MEAN_MOTION":"15.06364707","OBJECT_ID":"2021-044BH","EPHEMERIS_TYPE":"0","REF_FRAME":"TEME","MEAN_MOTION_DDOT":"0.0000000000000","SITE":"AFETR","TLE_LINE2":"2 48693  53.0526 315.5211 0001676  62.3909 253.3089 15.06364707  3585","APOAPSIS":"548.482","ARG_OF_PERICENTER":"62.3909","REV_AT_EPOCH":"358","PERIOD":"95.594","LAUNCH_DATE":"2021-05-26"},{"TLE_LINE2":"2 48694  53.0526 320.5337 0001420  75.7925  47.2658 15.06354950  3596","APOAPSIS":"548.335","SITE":"AFETR","PERIOD":"95.595","LAUNCH_DATE":"2021-05-26","ARG_OF_PERICENTER":"75.7925","REV_AT_EPOCH":"359","CENTER_NAME":"EARTH","MEAN_MOTION_DOT":"0.00039506","RA_OF_ASC_NODE":"320.5337","GP_ID":"189775472","SEMIMAJOR_AXIS":"6925.487","REF_FRAME":"TEME","MEAN_MOTION_DDOT":"0.0000000000000","RCS_SIZE":"LARGE","OBJECT_ID":"2021-044BJ","MEAN_MOTION":"15.06354950","EPHEMERIS_TYPE":"0","TLE_LINE1":"1 48694U 21044BJ  21318.91667824  .00039506  00000-0  26595-2 0  9992","INCLINATION":"53.0526","MEAN_ANOMALY":"47.2658","OBJECT_NAME":"STARLINK-2748","NORAD_CAT_ID":"48694","CLASSIFICATION_TYPE":"U","BSTAR":"0.00265950000000","TIME_SYSTEM":"UTC","OBJECT_TYPE":"PAYLOAD","ECCENTRICITY":"0.00014200","PERIAPSIS":"546.368","EPOCH":"2021-11-14T22:00:00.999936","ELEMENT_SET_NO":"999","FILE":"3215179","DECAY_DATE":null,"MEAN_ELEMENT_THEORY":"SGP4","COUNTRY_CODE":"US"},{"TIME_SYSTEM":"UTC","ECCENTRICITY":"0.00017640","OBJECT_TYPE":"PAYLOAD","NORAD_CAT_ID":"48695","CLASSIFICATION_TYPE":"U","BSTAR":"0.00221650000000","INCLINATION":"53.0544","MEAN_ANOMALY":"324.8329","OBJECT_NAME":"STARLINK-2616","TLE_LINE1":"1 48695U 21044BK  21318.91667824  .00032878  00000-0  22165-2 0  9997","FILE":"3215179","DECAY_DATE":null,"COUNTRY_CODE":"US","MEAN_ELEMENT_THEORY":"SGP4","ELEMENT_SET_NO":"999","PERIAPSIS":"546.026","EPOCH":"2021-11-14T22:00:00.999936","ARG_OF_PERICENTER":"63.3336","REV_AT_EPOCH":"359","PERIOD":"95.593","LAUNCH_DATE":"2021-05-26","SITE":"AFETR","TLE_LINE2":"2 48695  53.0544 320.5270 0001764  63.3336 324.8329 15.06388718  3591","APOAPSIS":"548.470","RCS_SIZE":"LARGE","MEAN_MOTION":"15.06388718","OBJECT_ID":"2021-044BK","EPHEMERIS_TYPE":"0","REF_FRAME":"TEME","MEAN_MOTION_DDOT":"0.0000000000000","SEMIMAJOR_AXIS":"6925.383","CENTER_NAME":"EARTH","RA_OF_ASC_NODE":"320.5270","MEAN_MOTION_DOT":"0.00032878","GP_ID":"189775356"},{"OBJECT_NAME":"STARLINK-2753","MEAN_ANOMALY":"296.3263","INCLINATION":"53.0621","TLE_LINE1":"1 48696U 21044BL  21318.50375128  .00004120  00000-0  29528-3 0  9996","ECCENTRICITY":"0.00017750","OBJECT_TYPE":"PAYLOAD","TIME_SYSTEM":"UTC","CLASSIFICATION_TYPE":"U","BSTAR":"0.00029528000000","NORAD_CAT_ID":"48696","EPOCH":"2021-11-14T12:05:24.110592","PERIAPSIS":"545.961","COUNTRY_CODE":"US","MEAN_ELEMENT_THEORY":"SGP4","DECAY_DATE":null,"FILE":"3214995","ELEMENT_SET_NO":"999","SITE":"AFETR","APOAPSIS":"548.419","TLE_LINE2":"2 48696  53.0621 327.3613 0001775  63.7909 296.3263 15.06407605 26565","REV_AT_EPOCH":"2656","ARG_OF_PERICENTER":"63.7909","LAUNCH_DATE":"2021-05-26","PERIOD":"95.592","SEMIMAJOR_AXIS":"6925.325","GP_ID":"189747705","RA_OF_ASC_NODE":"327.3613","MEAN_MOTION_DOT":"0.00004120","CENTER_NAME":"EARTH","EPHEMERIS_TYPE":"0","MEAN_MOTION":"15.06407605","OBJECT_ID":"2021-044BL","RCS_SIZE":"LARGE","MEAN_MOTION_DDOT":"0.0000000000000","REF_FRAME":"TEME"},{"PERIAPSIS":"546.273","EPOCH":"2021-11-14T12:53:10.948992","FILE":"3215122","DECAY_DATE":null,"MEAN_ELEMENT_THEORY":"SGP4","COUNTRY_CODE":"US","ELEMENT_SET_NO":"999","MEAN_ANOMALY":"290.8837","INCLINATION":"53.0565","OBJECT_NAME":"STARLINK-2715","TLE_LINE1":"1 48697U 21044BM  21318.53693228  .00000946  00000-0  82433-4 0  9991","TIME_SYSTEM":"UTC","ECCENTRICITY":"0.00014160","OBJECT_TYPE":"PAYLOAD","NORAD_CAT_ID":"48697","CLASSIFICATION_TYPE":"U","BSTAR":"0.00008243300000","SEMIMAJOR_AXIS":"6925.388","CENTER_NAME":"EARTH","MEAN_MOTION_DOT":"0.00000946","RA_OF_ASC_NODE":"327.2370","GP_ID":"189751401","RCS_SIZE":"LARGE","OBJECT_ID":"2021-044BM","MEAN_MOTION":"15.06387043","EPHEMERIS_TYPE":"0","REF_FRAME":"TEME","MEAN_MOTION_DDOT":"0.0000000000000","SITE":"AFETR","APOAPSIS":"548.234","TLE_LINE2":"2 48697  53.0565 327.2370 0001416  69.2304 290.8837 15.06387043 27407","ARG_OF_PERICENTER":"69.2304","REV_AT_EPOCH":"2740","PERIOD":"95.593","LAUNCH_DATE":"2021-05-26"}];
